{"type": "FeatureCollection", "features": [ {"type": "Feature", "properties": {"norad_id": 30892, "name": "FENGYUN 1C DEB", "group": "fengyun-1c-debris", "lat": 64.60592548511298, "lon": -77.58433797256748, "alt_km": 821.4486267716966, "timestamp": "2025-12-25T03:55:56.637330+00:00", "meta": {"OBJECT_NAME": "FENGYUN 1C DEB", "OBJECT_ID": "1999-025AYE", "EPOCH": "2025-12-13T14:04:34.549536", "MEAN_MOTION": 14.18924802, "ECCENTRICITY": 0.00379168, "INCLINATION": 99.663, "RA_OF_ASC_NODE": 290.842, "ARG_OF_PERICENTER": 186.6804, "MEAN_ANOMALY": 173.3868, "EPHEMERIS_TYPE": 0, "CLASSIFICATION_TYPE": "U", "NORAD_CAT_ID": 30892, "ELEMENT_SET_NO": 999, "REV_AT_EPOCH": 64315, "BSTAR": 0.00057005886, "MEAN_MOTION_DOT": 1.145e-05, "MEAN_MOTION_DDOT": 0}, "tle": {"line1": "1 30892U 99025AYE 25347.58651099  .00001145  00000+0  57006-3 0  9992", "line2": "2 30892  99.6630 290.8420 0037916 186.6804 173.3868 14.18924802643155"}}, "geometry": {"type": "Point", "coordinates": [-77.58433797256748, 64.60592548511298]}}, {"type": "Feature", "properties": {"norad_id": 30893, "name": "FENGYUN 1C DEB", "group": "fengyun-1c-debris", "lat": 61.14106700027898, "lon": -139.6902009613685, "alt_km": 788.9384679327231, "timestamp": "2025-12-25T03:55:56.637340+00:00", "meta": {"OBJECT_NAME": "FENGYUN 1C DEB", "OBJECT_ID": "1999-025AYF", "EPOCH": "2025-12-18T08:03:40.157280", "MEAN_MOTION": 13.9408223, "ECCENTRICITY": 0.03091633, "INCLINATION": 98.2558, "RA_OF_ASC_NODE": 18.9197, "ARG_OF_PERICENTER": 77.2706, "MEAN_ANOMALY": 348.8675, "EPHEMERIS_TYPE": 0, "CLASSIFICATION_TYPE": "U", "NORAD_CAT_ID": 30893, "ELEMENT_SET_NO": 999, "REV_AT_EPOCH": 94963, "BSTAR": 0.00050651987, "MEAN_MOTION_DOT": 9.62e-06, "MEAN_MOTION_DDOT": 0}, "tle": {"line1": "1 30893U 99025AYF 25352.33588145  .00000962  00000+0  50652-3 0  9999", "line2": "2 30893  98.2558  18.9197 0309163  77.2706 348.8675 13.94082230949632"}}, "geometry": {"type": "Point", "coordinates": [-139.6902009613685, 61.14106700027898]}}, {"type": "Feature", "properties": {"norad_id": 30895, "name": "FENGYUN 1C DEB", "group": "fengyun-1c-debris", "lat": -62.310904297712604, "lon": -129.2882055795781, "alt_km": 935.7480911418561, "timestamp": "2025-12-25T03:55:56.637353+00:00", "meta": {"OBJECT_NAME": "FENGYUN 1C DEB", "OBJECT_ID": "1999-025AYH", "EPOCH": "2025-12-24T03:28:14.481984", "MEAN_MOTION": 14.31571229, "ECCENTRICITY": 0.02182764, "INCLINATION": 98.7175, "RA_OF_ASC_NODE": 66.6884, "ARG_OF_PERICENTER": 90.7256, "MEAN_ANOMALY": 301.9835, "EPHEMERIS_TYPE": 0, "CLASSIFICATION_TYPE": "U", "NORAD_CAT_ID": 30895, "ELEMENT_SET_NO": 999, "REV_AT_EPOCH": 97956, "BSTAR": 0.00027034403, "MEAN_MOTION_DOT": 8.85e-06, "MEAN_MOTION_DDOT": 0}, "tle": {"line1": "1 30895U 99025AYH 25358.14461206  .00000885  00000+0  27034-3 0  9996", "line2": "2 30895  98.7175  66.6884 0218276  90.7256 301.9835 14.31571229979567"}}, "geometry": {"type": "Point", "coordinates": [-129.2882055795781, -62.310904297712604]}}, {"type": "Feature", "properties": {"norad_id": 30898, "name": "FENGYUN 1C DEB", "group": "fengyun-1c-debris", "lat": 21.081065774802294, "lon": 96.62055078857615, "alt_km": 492.13245207200634, "timestamp": "2025-12-25T03:55:56.637364+00:00", "meta": {"OBJECT_NAME": "FENGYUN 1C DEB", "OBJECT_ID": "1999-025AYL", "EPOCH": "2025-12-24T00:27:03.417120", "MEAN_MOTION": 15.23675787, "ECCENTRICITY": 0.00415648, "INCLINATION": 99.0261, "RA_OF_ASC_NODE": 271.7313, "ARG_OF_PERICENTER": 76.1549, "MEAN_ANOMALY": 284.4302, "EPHEMERIS_TYPE": 0, "CLASSIFICATION_TYPE": "U", "NORAD_CAT_ID": 30898, "ELEMENT_SET_NO": 999, "REV_AT_EPOCH": 66543, "BSTAR": 0.0034432055, "MEAN_MOTION_DOT": 0.00085416, "MEAN_MOTION_DDOT": 0}, "tle": {"line1": "1 30898U 99025AYL 25358.01878955  .00085416  00000+0  34432-2 0  9990", "line2": "2 30898  99.0261 271.7313 0041564  76.1549 284.4302 15.23675787665431"}}, "geometry": {"type": "Point", "coordinates": [96.62055078857615, 21.081065774802294]}}, {"type": "Feature", "properties": {"norad_id": 30899, "name": "FENGYUN 1C DEB", "group": "fengyun-1c-debris", "lat": 42.7641590977731, "lon": -111.1835265608127, "alt_km": 794.3598109055611, "timestamp": "2025-12-25T03:55:56.637374+00:00", "meta": {"OBJECT_NAME": "FENGYUN 1C DEB", "OBJECT_ID": "1999-025AYM", "EPOCH": "2025-12-22T12:39:57.136896", "MEAN_MOTION": 14.33729751, "ECCENTRICITY": 0.00306026, "INCLINATION": 99.1768, "RA_OF_ASC_NODE": 254.6206, "ARG_OF_PERICENTER": 262.1688, "MEAN_ANOMALY": 222.6158, "EPHEMERIS_TYPE": 0, "CLASSIFICATION_TYPE": "U", "NORAD_CAT_ID": 30899, "ELEMENT_SET_NO": 999, "REV_AT_EPOCH": 96795, "BSTAR": 0.0023049821, "MEAN_MOTION_DOT": 6.39e-05, "MEAN_MOTION_DDOT": 0}, "tle": {"line1": "1 30899U 99025AYM 25356.52774464  .00006390  00000+0  23050-2 0  9993", "line2": "2 30899  99.1768 254.6206 0030602 262.1688 222.6158 14.33729751967954"}}, "geometry": {"type": "Point", "coordinates": [-111.1835265608127, 42.7641590977731]}}, {"type": "Feature", "properties": {"norad_id": 30903, "name": "FENGYUN 1C DEB", "group": "fengyun-1c-debris", "lat": 0.06231265979634652, "lon": -114.98542568641915, "alt_km": 868.7988568486326, "timestamp": "2025-12-25T03:55:56.637384+00:00", "meta": {"OBJECT_NAME": "FENGYUN 1C DEB", "OBJECT_ID": "1999-025AYR", "EPOCH": "2025-12-23T22:43:24.937824", "MEAN_MOTION": 13.97601805, "ECCENTRICITY": 0.0096602, "INCLINATION": 99.3704, "RA_OF_ASC_NODE": 243.7838, "ARG_OF_PERICENTER": 63.0235, "MEAN_ANOMALY": 298.0753, "EPHEMERIS_TYPE": 0, "CLASSIFICATION_TYPE": "U", "NORAD_CAT_ID": 30903, "ELEMENT_SET_NO": 999, "REV_AT_EPOCH": 68861, "BSTAR": 1.9133e-05, "MEAN_MOTION_DOT": -1.8e-07, "MEAN_MOTION_DDOT": 0}, "tle": {"line1": "1 30903U 99025AYR 25357.94681641 -.00000018  00000+0  19133-4 0  9991", "line2": "2 30903  99.3704 243.7838 0096602  63.0235 298.0753 13.97601805688619"}}, "geometry": {"type": "Point", "coordinates": [-114.98542568641915, 0.06231265979634652]}}, {"type": "Feature", "properties": {"norad_id": 30905, "name": "FENGYUN 1C DEB", "group": "fengyun-1c-debris", "lat": 0.8744663324347154, "lon": -105.29138057158796, "alt_km": 863.1017764366215, "timestamp": "2025-12-25T03:55:56.637394+00:00", "meta": {"OBJECT_NAME": "FENGYUN 1C DEB", "OBJECT_ID": "1999-025AYT", "EPOCH": "2025-12-23T10:26:55.840128", "MEAN_MOTION": 14.17883966, "ECCENTRICITY": 0.00562256, "INCLINATION": 98.8882, "RA_OF_ASC_NODE": 72.8422, "ARG_OF_PERICENTER": 50.3782, "MEAN_ANOMALY": 310.2336, "EPHEMERIS_TYPE": 0, "CLASSIFICATION_TYPE": "U", "NORAD_CAT_ID": 30905, "ELEMENT_SET_NO": 999, "REV_AT_EPOCH": 96274, "BSTAR": 0.001041541, "MEAN_MOTION_DOT": 2.117e-05, "MEAN_MOTION_DDOT": 0}, "tle": {"line1": "1 30905U 99025AYT 25357.43536852  .00002117  00000+0  10415-2 0  9993", "line2": "2 30905  98.8882  72.8422 0056225  50.3782 310.2336 14.17883966962741"}}, "geometry": {"type": "Point", "coordinates": [-105.29138057158796, 0.8744663324347154]}}, {"type": "Feature", "properties": {"norad_id": 30907, "name": "FENGYUN 1C DEB", "group": "fengyun-1c-debris", "lat": 10.250640161190923, "lon": 18.823318525832455, "alt_km": 845.705966773603, "timestamp": "2025-12-25T03:55:56.637404+00:00", "meta": {"OBJECT_NAME": "FENGYUN 1C DEB", "OBJECT_ID": "1999-025AYV", "EPOCH": "2025-12-17T21:06:12.131712", "MEAN_MOTION": 14.15106189, "ECCENTRICITY": 0.00565923, "INCLINATION": 99.9513, "RA_OF_ASC_NODE": 12.5269, "ARG_OF_PERICENTER": 124.1859, "MEAN_ANOMALY": 236.4694, "EPHEMERIS_TYPE": 0, "CLASSIFICATION_TYPE": "U", "NORAD_CAT_ID": 30907, "ELEMENT_SET_NO": 999, "REV_AT_EPOCH": 1622, "BSTAR": 0.00072022378, "MEAN_MOTION_DOT": 1.366e-05, "MEAN_MOTION_DDOT": 0}, "tle": {"line1": "1 30907U 99025AYV 25351.87930708  .00001366  00000+0  72022-3 0  9993", "line2": "2 30907  99.9513  12.5269 0056592 124.1859 236.4694 14.15106189 16220"}}, "geometry": {"type": "Point", "coordinates": [18.823318525832455, 10.250640161190923]}}, {"type": "Feature", "properties": {"norad_id": 30912, "name": "FENGYUN 1C DEB", "group": "fengyun-1c-debris", "lat": 54.665245954475616, "lon": -170.77388800295208, "alt_km": 552.5360258014898, "timestamp": "2025-12-25T03:55:56.637414+00:00", "meta": {"OBJECT_NAME": "FENGYUN 1C DEB", "OBJECT_ID": "1999-025AZA", "EPOCH": "2025-12-24T00:16:50.408256", "MEAN_MOTION": 14.89643399, "ECCENTRICITY": 0.00591571, "INCLINATION": 98.9954, "RA_OF_ASC_NODE": 200.8284, "ARG_OF_PERICENTER": 62.1715, "MEAN_ANOMALY": 298.5477, "EPHEMERIS_TYPE": 0, "CLASSIFICATION_TYPE": "U", "NORAD_CAT_ID": 30912, "ELEMENT_SET_NO": 999, "REV_AT_EPOCH": 99572, "BSTAR": 0.0012411919, "MEAN_MOTION_DOT": 0.00012205, "MEAN_MOTION_DDOT": 0}, "tle": {"line1": "1 30912U 99025AZA 25358.01169454  .00012205  00000+0  12412-2 0  9994", "line2": "2 30912  98.9954 200.8284 0059157  62.1715 298.5477 14.89643399995724"}}, "geometry": {"type": "Point", "coordinates": [-170.77388800295208, 54.665245954475616]}}, {"type": "Feature", "properties": {"norad_id": 30913, "name": "FENGYUN 1C DEB", "group": "fengyun-1c-debris", "lat": 43.98328676156028, "lon": 17.11844939469946, "alt_km": 880.2352139588984, "timestamp": "2025-12-25T03:55:56.637424+00:00", "meta": {"OBJECT_NAME": "FENGYUN 1C DEB", "OBJECT_ID": "1999-025AZB", "EPOCH": "2025-12-24T12:20:12.953184", "MEAN_MOTION": 14.0497085, "ECCENTRICITY": 0.0048864, "INCLINATION": 98.7447, "RA_OF_ASC_NODE": 25.035, "ARG_OF_PERICENTER": 148.8111, "MEAN_ANOMALY": 211.5973, "EPHEMERIS_TYPE": 0, "CLASSIFICATION_TYPE": "U", "NORAD_CAT_ID": 30913, "ELEMENT_SET_NO": 999, "REV_AT_EPOCH": 96083, "BSTAR": 0.00072027, "MEAN_MOTION_DOT": 1.129e-05, "MEAN_MOTION_DDOT": 0}, "tle": {"line1": "1 30913U 99025AZB 25358.51403881  .00001129  00000+0  72027-3 0  9997", "line2": "2 30913  98.7447  25.0350 0048864 148.8111 211.5973 14.04970850960838"}}, "geometry": {"type": "Point", "coordinates": [17.11844939469946, 43.98328676156028]}}]}